#aV2022  5 22  0  0  0.00000000     288 DD+AD WGS84 FIT  NGA
## 2211      0.00000000   300.00000000 59721 0.0000000000000
+   32     1  2  3  4  5  6  7  8  9 10 11 12 13 14 15 16 17
+         18 19 20 21 22 23 24 25 26 27 28 29 30 31 32  0  0
+          0  0  0  0  0  0  0  0  0  0  0  0  0  0  0  0  0
+          0  0  0  0  0  0  0  0  0  0  0  0  0  0  0  0  0
+          0  0  0  0  0  0  0  0  0  0  0  0  0  0  0  0  0
++         2  2  2  2  2  2  2  2  2  2  2  2  2  2  2  2  2
++         2  2  2  2  2  2  2  2  2  2  2  2  2  2  2  0  0
++         0  0  0  0  0  0  0  0  0  0  0  0  0  0  0  0  0
++         0  0  0  0  0  0  0  0  0  0  0  0  0  0  0  0  0
++         0  0  0  0  0  0  0  0  0  0  0  0  0  0  0  0  0
%c cc cc ccc ccc cccc cccc cccc cccc ccccc ccccc ccccc ccccc
%c cc cc ccc ccc cccc cccc cccc cccc ccccc ccccc ccccc ccccc
%f  0.0000000  0.000000000  0.00000000000  0.000000000000000
%f  0.0000000  0.000000000  0.00000000000  0.000000000000000
%i    0    0    0    0      0      0      0      0         0
%i    0    0    0    0      0      0      0      0         0
/*      NGA, ST. LOUIS,MO.                                  
/*   EPHEMERIS COMPUTED FROM 2 DAYS OF DATA                 
/*   EPOCHA v7 SMOOTHER                                     
/*   G2139 IERS2010 SATIGS SATAPC                           
*  2022  5 22 14 15  0.00000000
P  1  13887.544343 -21904.428767   4466.252095    357.456695                    
V  1   -637.347139   6461.658684  31908.226317     -0.082113                    
P  2 -16367.745871   4676.805928 -19778.808703   -653.179866                    
V  2   8313.539736 -25199.879907 -12289.675208      0.001337                    
P  3  16572.664748 -12668.416478 -16481.395643   -253.270468                    
V  3  20801.564545   -153.837790  21287.051265     -0.134387                    
P  4   7281.721380 -15143.750109 -20537.370765   -164.806760                    
V  4  15028.529868  21390.938729 -10524.024065      0.036829                    
P  5 -25875.385638   5469.914039   3053.664950    -82.767086                    
V  5  -4370.530159  -2137.958106 -31347.094747     -0.013749                    
P  6  -9903.241851 -12090.480966 -21400.858016    313.260187                    
V  6  12176.118534 -24394.228662   8201.170939      0.148150                    
P  7   3108.080170 -24089.162607  10533.230511    322.196105                    
V  7   8296.886090 -10428.622308 -27838.941146      0.000781                    
P  8  13782.160032  -6681.855911  21682.723483    -69.037383                    
V  8  16178.404899  22350.722804  -3043.382254     -0.015019                    
P  9  -2735.954284 -21798.994219 -14966.405023   -334.751488                    
V  9  12910.674085  14007.427235 -22890.086273      0.030072                    
P 10  14044.705090  11965.711418  19360.882707   -424.374647                    
V 10 -23955.745859   3100.850413  15294.414927     -0.149317                    
P 11 -17215.684862   2571.656930 -20059.025208    -21.966431                    
V 11  11088.663801 -22945.954039 -12477.397416      0.042094                    
P 12 -20587.805976   9779.305566 -13802.330081   -219.385322                    
V 12 -17138.959965  -1730.424464  24933.609602     -0.058633                    
P 13 -17192.615629  -3647.714785  19814.771073    316.159383                    
V 13 -10701.016507 -23079.331964 -13262.096151      0.068317                    
P 14 -12322.490549 -13260.621369  19463.468171   -109.339392                    
V 14  24626.495477  -2480.431817  13809.536185     -0.014740                    
P 15 -12855.557219   9119.966404  20980.761180    -59.249537                    
V 15 -18532.073698 -20605.811231  -2042.679272      0.029870                    
P 16  26768.756195   1042.418375  -1379.728173   -503.017701                    
V 16  -1405.571710   2142.467936 -31580.058404     -0.031493                    
P 17 -13590.383603 -22784.768087    382.987452    615.753355                    
V 17   1944.053248  -1227.266769  32177.602188      0.047258                    
P 18  -4588.249692  24248.401903   9663.650158    163.277026                    
V 18  -7506.509834  10018.632965 -28780.060952     -0.102675                    
P 19 -16826.433275 -19099.630783  -8218.236651    160.666034                    
V 19  -3147.891407  -9682.216388  29692.496465      0.049794                    
P 20 -25202.502244    285.972078  -7989.541032    514.371021                    
V 20   9138.618361  -5691.445488 -29245.754211     -0.010627                    
P 21  16577.481253 -14566.007742  14902.758914    161.178840                    
V 21  -4131.752675  17780.065263  23640.132016      0.001163                    
P 22  17732.443049  17209.477007  -9557.723992    263.280916                    
V 22   4222.382901  12210.924157  28404.758024      0.061985                    
P 23   1917.630337  14914.216079  21884.697429    -23.501342                    
V 23 -27607.317820   3133.628182    182.665671     -0.023924                    
P 24 -14442.958038  20100.656856   8752.285417    236.381458                    
V 24    614.486805 -12260.538958  28621.750126     -0.072015                    
P 25  -6273.774089  15402.592828 -20939.771463    327.921380                    
V 25 -25982.916481   1482.573586   9268.286282      0.047712                    
P 26  23252.167234   5562.726359 -11980.045719    207.350564                    
V 26 -14483.703717   4784.090797 -25769.933923      0.025638                    
P 27  19027.737217   6602.244686  17301.497752    206.692349                    
V 27  11639.699274  18963.240677 -19409.878310      0.054152                    
P 28 -19780.180672 -10289.917264  14765.395940    353.280785                    
V 28  17956.735122  -1795.845762  23853.941966     -0.072586                    
P 29    989.446172  21728.211872 -15250.255730   -516.288505                    
V 29 -11189.623331 -15752.064926 -23313.917550     -0.039299                    
P 30  -4389.576412 -19766.408730  17144.358656   -528.833736                    
V 30  11617.083741 -18567.997118 -18776.568252     -0.013864                    
P 31  12284.404604   9600.896088 -21592.434771   -178.669284                    
V 31 -12605.360783  24086.555273   4017.853285     -0.015867                    
P 32  16441.820947  20893.711724  -1866.950621   -132.994378                    
V 32   -776.939004   3660.761880  31449.065825     -0.088548                    
EOF
